{
  "type": "FeatureCollection",
  "features": [
    {
      "type": "Feature",
      "properties": {
        "norad_id": 33625,
        "name": "FENGYUN 1C DEB",
        "group": "fengyun-1c-debris",
        "lat": -5.4093927829497295,
        "lon": 104.95859209735411,
        "alt_km": 771.8768847423917,
        "timestamp": "2025-12-19T04:59:48.592593+00:00",
        "meta_object_name": "FENGYUN 1C DEB",
        "meta_object_id": "1999-025DDJ",
        "meta_epoch": "2025-12-17T18:30:25.862688",
        "meta_mean_motion": 14.61094935,
        "meta_eccentricity": 0.02257102,
        "meta_inclination": 98.6203,
        "meta_ra_of_asc_node": 102.638,
        "meta_arg_of_pericenter": 119.7403,
        "meta_mean_anomaly": 242.6462,
        "meta_ephemeris_type": 0,
        "meta_classification_type": "U",
        "meta_norad_cat_id": 33625,
        "meta_element_set_no": 999,
        "meta_rev_at_epoch": 61464,
        "meta_bstar": 0.00092873472,
        "meta_mean_motion_dot": 6.506e-05,
        "meta_mean_motion_ddot": 0,
        "tle_line1": "1 33625U 99025DDJ 25351.77113267  .00006506  00000+0  92873-3 0  9992",
        "tle_line2": "2 33625  98.6203 102.6380 0225710 119.7403 242.6462 14.61094935614640"
      },
      "geometry": {
        "type": "Point",
        "coordinates": [
          104.95859209735411,
          -5.4093927829497295
        ]
      }
    },
    {
      "type": "Feature",
      "properties": {
        "norad_id": 33630,
        "name": "FENGYUN 1C DEB",
        "group": "fengyun-1c-debris",
        "lat": -42.27057982050682,
        "lon": -88.71140865126554,
        "alt_km": 936.3048024476702,
        "timestamp": "2025-12-19T04:59:48.592604+00:00",
        "meta_object_name": "FENGYUN 1C DEB",
        "meta_object_id": "1999-025DDP",
        "meta_epoch": "2025-12-16T13:17:07.494144",
        "meta_mean_motion": 14.17726795,
        "meta_eccentricity": 0.01350341,
        "meta_inclination": 98.616,
        "meta_ra_of_asc_node": 96.6346,
        "meta_arg_of_pericenter": 57.1725,
        "meta_mean_anomaly": 304.237,
        "meta_ephemeris_type": 0,
        "meta_classification_type": "U",
        "meta_norad_cat_id": 33630,
        "meta_element_set_no": 999,
        "meta_rev_at_epoch": 64465,
        "meta_bstar": 0.00032109765,
        "meta_mean_motion_dot": 6.74e-06,
        "meta_mean_motion_ddot": 0,
        "tle_line1": "1 33630U 99025DDP 25350.55355896  .00000674  00000+0  32110-3 0  9997",
        "tle_line2": "2 33630  98.6160  96.6346 0135034  57.1725 304.2370 14.17726795644657"
      },
      "geometry": {
        "type": "Point",
        "coordinates": [
          -88.71140865126554,
          -42.27057982050682
        ]
      }
    },
    {
      "type": "Feature",
      "properties": {
        "norad_id": 33633,
        "name": "FENGYUN 1C DEB",
        "group": "fengyun-1c-debris",
        "lat": -56.33889361151618,
        "lon": 101.47876839838807,
        "alt_km": 893.6147407553308,
        "timestamp": "2025-12-19T04:59:48.592614+00:00",
        "meta_object_name": "FENGYUN 1C DEB",
        "meta_object_id": "1999-025DDS",
        "meta_epoch": "2025-12-14T05:17:20.235840",
        "meta_mean_motion": 14.19354186,
        "meta_eccentricity": 0.00834952,
        "meta_inclination": 99.0564,
        "meta_ra_of_asc_node": 82.5239,
        "meta_arg_of_pericenter": 146.6641,
        "meta_mean_anomaly": 243.3221,
        "meta_ephemeris_type": 0,
        "meta_classification_type": "U",
        "meta_norad_cat_id": 33633,
        "meta_element_set_no": 999,
        "meta_rev_at_epoch": 90732,
        "meta_bstar": 0.0025593474,
        "meta_mean_motion_dot": 5.525e-05,
        "meta_mean_motion_ddot": 0,
        "tle_line1": "1 33633U 99025DDS 25348.22037310  .00005525  00000+0  25593-2 0  9995",
        "tle_line2": "2 33633  99.0564  82.5239 0083495 146.6641 243.3221 14.19354186907329"
      },
      "geometry": {
        "type": "Point",
        "coordinates": [
          101.47876839838807,
          -56.33889361151618
        ]
      }
    },
    {
      "type": "Feature",
      "properties": {
        "norad_id": 33637,
        "name": "FENGYUN 1C DEB",
        "group": "fengyun-1c-debris",
        "lat": -48.22654556574586,
        "lon": -151.5283822393105,
        "alt_km": 782.1947855250828,
        "timestamp": "2025-12-19T04:59:48.592625+00:00",
        "meta_object_name": "FENGYUN 1C DEB",
        "meta_object_id": "1999-025DDW",
        "meta_epoch": "2025-12-13T20:55:05.593728",
        "meta_mean_motion": 14.36759768,
        "meta_eccentricity": 0.00830796,
        "meta_inclination": 98.4929,
        "meta_ra_of_asc_node": 32.8364,
        "meta_arg_of_pericenter": 148.1698,
        "meta_mean_anomaly": 212.4548,
        "meta_ephemeris_type": 0,
        "meta_classification_type": "U",
        "meta_norad_cat_id": 33637,
        "meta_element_set_no": 999,
        "meta_rev_at_epoch": 64854,
        "meta_bstar": 0.0014619922,
        "meta_mean_motion_dot": 4.446e-05,
        "meta_mean_motion_ddot": 0,
        "tle_line1": "1 33637U 99025DDW 25347.87159252  .00004446  00000+0  14620-2 0  9999",
        "tle_line2": "2 33637  98.4929  32.8364 0083079 148.1698 212.4548 14.36759768648544"
      },
      "geometry": {
        "type": "Point",
        "coordinates": [
          -151.5283822393105,
          -48.22654556574586
        ]
      }
    },
    {
      "type": "Feature",
      "properties": {
        "norad_id": 33638,
        "name": "FENGYUN 1C DEB",
        "group": "fengyun-1c-debris",
        "lat": -48.84796354373556,
        "lon": 53.31534104983668,
        "alt_km": 832.851641491412,
        "timestamp": "2025-12-19T04:59:48.592635+00:00",
        "meta_object_name": "FENGYUN 1C DEB",
        "meta_object_id": "1999-025DDX",
        "meta_epoch": "2025-12-16T10:58:25.363200",
        "meta_mean_motion": 13.69321197,
        "meta_eccentricity": 0.02644016,
        "meta_inclination": 98.4653,
        "meta_ra_of_asc_node": 240.7052,
        "meta_arg_of_pericenter": 263.1375,
        "meta_mean_anomaly": 93.9631,
        "meta_ephemeris_type": 0,
        "meta_classification_type": "U",
        "meta_norad_cat_id": 33638,
        "meta_element_set_no": 999,
        "meta_rev_at_epoch": 60966,
        "meta_bstar": 0.00088523672,
        "meta_mean_motion_dot": 9.44e-06,
        "meta_mean_motion_ddot": 0,
        "tle_line1": "1 33638U 99025DDX 25350.45723800  .00000944  00000+0  88524-3 0  9998",
        "tle_line2": "2 33638  98.4653 240.7052 0264401 263.1375  93.9631 13.69321197609664"
      },
      "geometry": {
        "type": "Point",
        "coordinates": [
          53.31534104983668,
          -48.84796354373556
        ]
      }
    },
    {
      "type": "Feature",
      "properties": {
        "norad_id": 33639,
        "name": "FENGYUN 1C DEB",
        "group": "fengyun-1c-debris",
        "lat": 27.473412770347526,
        "lon": 79.7293387164174,
        "alt_km": 772.4188392367078,
        "timestamp": "2025-12-19T04:59:48.592645+00:00",
        "meta_object_name": "FENGYUN 1C DEB",
        "meta_object_id": "1999-025DDY",
        "meta_epoch": "2025-12-14T11:30:34.684704",
        "meta_mean_motion": 14.40475035,
        "meta_eccentricity": 0.00499213,
        "meta_inclination": 98.7123,
        "meta_ra_of_asc_node": 79.4896,
        "meta_arg_of_pericenter": 283.4225,
        "meta_mean_anomaly": 76.1402,
        "meta_ephemeris_type": 0,
        "meta_classification_type": "U",
        "meta_norad_cat_id": 33639,
        "meta_element_set_no": 999,
        "meta_rev_at_epoch": 60607,
        "meta_bstar": 0.0023798225,
        "meta_mean_motion_dot": 7.641e-05,
        "meta_mean_motion_ddot": 0,
        "tle_line1": "1 33639U 99025DDY 25348.47956811  .00007641  00000+0  23798-2 0  9990",
        "tle_line2": "2 33639  98.7123  79.4896 0049921 283.4225  76.1402 14.40475035606072"
      },
      "geometry": {
        "type": "Point",
        "coordinates": [
          79.7293387164174,
          27.473412770347526
        ]
      }
    },
    {
      "type": "Feature",
      "properties": {
        "norad_id": 33640,
        "name": "FENGYUN 1C DEB",
        "group": "fengyun-1c-debris",
        "lat": -19.22116509262622,
        "lon": -60.654839772501944,
        "alt_km": 804.8369988949398,
        "timestamp": "2025-12-19T04:59:48.592655+00:00",
        "meta_object_name": "FENGYUN 1C DEB",
        "meta_object_id": "1999-025DDZ",
        "meta_epoch": "2025-12-18T19:07:23.304000",
        "meta_mean_motion": 14.45914124,
        "meta_eccentricity": 0.00910796,
        "meta_inclination": 98.8418,
        "meta_ra_of_asc_node": 295.8055,
        "meta_arg_of_pericenter": 141.5956,
        "meta_mean_anomaly": 219.1765,
        "meta_ephemeris_type": 0,
        "meta_classification_type": "U",
        "meta_norad_cat_id": 33640,
        "meta_element_set_no": 999,
        "meta_rev_at_epoch": 92430,
        "meta_bstar": 0.0003415581,
        "meta_mean_motion_dot": 1.228e-05,
        "meta_mean_motion_ddot": 0,
        "tle_line1": "1 33640U 99025DDZ 25352.79679750  .00001228  00000+0  34156-3 0  9992",
        "tle_line2": "2 33640  98.8418 295.8055 0091079 141.5956 219.1765 14.45914124924301"
      },
      "geometry": {
        "type": "Point",
        "coordinates": [
          -60.654839772501944,
          -19.22116509262622
        ]
      }
    }
  ]
}